OBJECT_NAME,OBJECT_ID,EPOCH,MEAN_MOTION,ECCENTRICITY,INCLINATION,RA_OF_ASC_NODE,ARG_OF_PERICENTER,MEAN_ANOMALY,EPHEMERIS_TYPE,CLASSIFICATION_TYPE,NORAD_CAT_ID,ELEMENT_SET_NO,REV_AT_EPOCH,BSTAR,MEAN_MOTION_DOT,MEAN_MOTION_DDOT
IRIDIUM 135,2017-083A,2026-06-17T22:03:23.219136,14.34217310,.00020686,86.3961,321.7094,91.5646,268.5787,0,U,43070,999,44425,-.10297063E-4,-.9E-7,0
IRIDIUM 138,2017-083B,2026-06-18T08:42:43.145568,14.34217808,.00023124,86.3979,321.2192,86.9990,273.1471,0,U,43071,999,44430,.22284014E-4,.82E-6,0
IRIDIUM 116,2017-083C,2026-06-17T23:34:43.127040,14.34217536,.00018781,86.3960,321.6688,99.6975,260.4433,0,U,43072,999,44428,-.9029542E-5,-.6E-7,0
IRIDIUM 130,2017-083D,2026-06-18T08:51:50.836032,14.34219243,.00019461,86.3973,321.7822,92.8921,267.2497,0,U,43073,999,44428,.47721682E-4,.153E-5,0
IRIDIUM 151,2017-083E,2026-06-17T22:12:31.216320,14.34217308,.00020515,86.3962,321.7506,93.2538,266.8893,0,U,43074,999,44424,-.10563676E-4,-.1E-6,0
IRIDIUM 134,2017-083F,2026-06-18T09:10:07.226112,14.34216977,.00020042,86.3963,321.5675,91.9423,268.2003,0,U,43075,999,44427,-.25878154E-4,-.53E-6,0
IRIDIUM 137,2017-083G,2026-06-18T09:28:23.160000,14.34217627,.00021987,86.3965,321.6552,104.2721,255.8719,0,U,43076,999,44434,-.3500884E-5,.1E-6,0
IRIDIUM 141,2017-083H,2026-06-18T09:19:15.142944,14.34217760,.0002229,86.3964,321.4881,90.9844,269.1607,0,U,43077,999,44434,.523476E-6,.21E-6,0
IRIDIUM 153,2017-083J,2026-06-18T14:52:15.449664,14.34217675,.00022348,86.3961,289.8717,89.7167,270.4285,0,U,43078,999,44548,.5808359E-5,.36E-6,0
IRIDIUM 131,2017-083K,2026-06-18T09:00:59.080320,14.34217396,.00022124,86.3970,321.6794,91.9254,268.2195,0,U,43079,999,44427,.23241221E-4,.85E-6,0
IRIDIUM 144,2018-030A,2026-06-18T15:01:23.412288,14.34217358,.00021129,86.3960,289.7980,97.4240,262.7196,0,U,43249,999,43034,.50885465E-4,.162E-5,0
IRIDIUM 149,2018-030B,2026-06-18T15:10:31.457856,14.34217759,.00022659,86.3958,289.7625,93.6560,266.4895,0,U,43250,999,43036,.15639855E-4,.64E-6,0
IRIDIUM 157,2018-030C,2026-06-18T13:57:27.493344,14.34217157,.00020974,86.3957,289.8372,93.9245,266.2191,0,U,43251,999,43033,-.16121237E-4,-.25E-6,0
IRIDIUM 140,2018-030D,2026-06-18T14:24:51.439104,14.34217514,.00020264,86.3955,289.8417,94.1998,265.9430,0,U,43252,999,43039,-.16415E-7,.2E-6,0
IRIDIUM 145,2018-030E,2026-06-18T07:24:43.440768,14.34217445,.00020226,86.3959,289.9358,101.4764,258.6659,0,U,43253,999,43028,.3415417E-5,.29E-6,0
IRIDIUM 146,2018-030F,2026-06-18T13:39:11.143008,14.34219207,.00021354,86.3960,289.8392,96.9056,263.2383,0,U,43254,999,43033,.47634034E-4,.153E-5,0
IRIDIUM 148,2018-030G,2026-06-18T14:33:59.475168,14.34217451,.00021523,86.3958,289.8668,96.4970,263.6471,0,U,43255,999,43037,-.6215821E-5,.2E-7,0
IRIDIUM 142,2018-030H,2026-06-18T13:48:19.478016,14.34217219,.00020239,86.3955,289.7690,99.1249,261.0176,0,U,43256,999,43033,-.6231831E-5,.2E-7,0
IRIDIUM 150,2018-030J,2026-06-18T06:20:47.425056,14.34217786,.00021537,86.3960,290.0151,93.8168,266.3274,0,U,43257,999,43031,.10473918E-4,.49E-6,0
IRIDIUM 143,2018-030K,2026-06-18T14:15:43.435008,14.34217457,.00019915,86.3960,289.9700,97.1034,263.0388,0,U,43258,999,43029,.5387175E-5,.35E-6,0
IRIDIUM 161,2018-047C,2026-06-18T06:40:44.183424,14.43278873,.00025868,86.4482,88.0148,84.2277,275.9219,0,U,43478,999,42529,.58113245E-4,.216E-5,0
IRIDIUM 152,2018-047D,2026-06-18T06:54:34.361280,14.34217583,.00023429,86.3957,87.8721,82.9103,277.2359,0,U,43479,999,42264,.78108377E-4,.239E-5,0
IRIDIUM 147,2018-047E,2026-06-18T12:05:06.275904,14.34217603,.00020439,86.3959,87.7871,86.1252,274.0177,0,U,43480,999,42267,.2378404E-5,.26E-6,0
IRIDIUM 110,2018-047F,2026-06-18T12:14:14.371584,14.34217869,.00025658,86.3960,87.8764,81.6924,278.4563,0,U,43481,999,42266,.50844409E-4,.162E-5,0
IRIDIUM 162,2018-047G,2026-06-18T11:31:10.773984,14.43282353,.00022602,86.4481,87.8218,82.4012,277.7446,0,U,43482,999,42531,.76124943E-4,.276E-5,0
IRIDIUM 160,2018-061A,2026-06-18T09:15:46.480032,14.34217547,.00021566,86.3959,56.2961,85.5069,274.6373,0,U,43569,999,41354,-.7236392E-5,0,0
IRIDIUM 166,2018-061B,2026-06-18T14:53:42.476928,14.34217506,.00020058,86.3958,56.1484,86.5938,273.5487,0,U,43570,999,41360,-.5967382E-5,.3E-7,0
IRIDIUM 158,2018-061C,2026-06-18T04:05:14.456544,14.34217367,.00021,86.3959,56.3467,82.7094,277.4341,0,U,43571,999,41350,-.6323461E-5,.2E-7,0
IRIDIUM 165,2018-061D,2026-06-18T14:44:34.466784,14.34217405,.00020652,86.3961,56.2076,87.1976,272.9456,0,U,43572,999,41359,.11852026E-4,.53E-6,0
IRIDIUM 155,2018-061E,2026-06-18T10:28:50.460960,14.34217858,.00021135,86.3957,56.1508,83.4048,276.7388,0,U,43573,999,41353,.12479613E-4,.55E-6,0
